{
  "norad_id": 66785,
  "name": "LEMUR-2-VUKASIN",
  "history": [
    {
      "epoch": "2026-03-28T15:17:45.913344",
      "apogee_km": 575.913688061306,
      "perigee_km": 562.0884664592741,
      "latitude_deg": -62.704463311619136,
      "longitude_deg": -160.31565184006467,
      "semi_major_axis_km": 6947.13807726029,
      "eccentricity": 0.00099503,
      "inclination_deg": 97.5318,
      "raan_deg": 161.2139,
      "arg_perigee_deg": 53.4613,
      "mean_anomaly_deg": 306.7525,
      "mean_motion_rev_day": 14.99318383
    },
    {
      "epoch": "2026-03-29T04:06:35.460864",
      "apogee_km": 575.8002947870691,
      "perigee_km": 562.1256232277583,
      "latitude_deg": 84.15490971704153,
      "longitude_deg": -109.06059904000722,
      "semi_major_axis_km": 6947.099959007413,
      "eccentricity": 0.0009842,
      "inclination_deg": 97.5315,
      "raan_deg": 161.7299,
      "arg_perigee_deg": 51.5827,
      "mean_anomaly_deg": 308.6279,
      "mean_motion_rev_day": 14.99330723
    }
  ]
}